[{"OBJECT_NAME":"STARLINK-2523","OBJECT_ID":"2021-036AG","EPOCH":"2026-03-09T10:37:36.848640","MEAN_MOTION":15.06415148,"ECCENTRICITY":0.00012657,"INCLINATION":53.0541,"RA_OF_ASC_NODE":92.7283,"ARG_OF_PERICENTER":69.0381,"MEAN_ANOMALY":291.0743,"EPHEMERIS_TYPE":0,"CLASSIFICATION_TYPE":"U","NORAD_CAT_ID":48306,"ELEMENT_SET_NO":999,"REV_AT_EPOCH":26813,"BSTAR":0.0003168937,"MEAN_MOTION_DOT":4.444e-5,"MEAN_MOTION_DDOT":0},{"OBJECT_NAME":"THE ARAB SATELLITE 813","OBJECT_ID":"2025-292B","EPOCH":"2026-03-09T21:37:26.354208","MEAN_MOTION":15.05594469,"ECCENTRICITY":0.00142186,"INCLINATION":97.6379,"RA_OF_ASC_NODE":145.6178,"ARG_OF_PERICENTER":341.4344,"MEAN_ANOMALY":18.6363,"EPHEMERIS_TYPE":0,"CLASSIFICATION_TYPE":"U","NORAD_CAT_ID":66994,"ELEMENT_SET_NO":999,"REV_AT_EPOCH":1350,"BSTAR":0.00043840303,"MEAN_MOTION_DOT":6.274e-5,"MEAN_MOTION_DDOT":0}]
